ONEWEB-0589             
1 54655U 22166P   25082.95438139  .00000144  00000+0  31629-3 0  9993
2 54655  87.9326 333.7590 0002089 105.9949 254.1415 13.21823815112064
ONEWEB-0590             
1 54656U 22166Q   25082.97723664 -.00000010  00000+0 -56773-4 0  9998
2 54656  87.9311 333.7465 0001285  83.2711 276.8569 13.21823054112057
ONEWEB-0591             
1 54657U 22166R   25082.76356257 -.00000017  00000+0 -72386-4 0  9991
2 54657  87.9325 333.7978 0001740  85.7217 274.4115 13.21828734112057
ONEWEB-0592             
1 54658U 22166S   25082.91810585 -.00000251  00000+0 -63880-3 0  9996
2 54658  87.9321 333.7225 0001666  84.1227 276.0096 13.21827198112420
ONEWEB-0593             
1 54659U 22166T   25082.94176416  .00000131  00000+0  28516-3 0  9990
2 54659  87.9325 333.7531 0001784  86.7298 273.4040 13.21829218112067
ONEWEB-0594             
1 54660U 22166U   25082.96070331  .00000068  00000+0  13231-3 0  9990
2 54660  87.9329 333.7593 0001818  79.1060 281.0278 13.21825788112080
ONEWEB-0595             
1 54661U 22166V   25082.93860760 -.00000141  00000+0 -37379-3 0  9994
2 54661  87.9325 333.7439 0001654  73.6473 286.4843 13.21826602112051
ONEWEB-0596             
1 54662U 22166W   25082.68471064 -.00000012  00000+0 -60724-4 0  9990
2 54662  87.9327 333.8053 0001599  86.0817 274.0500 13.21824851112029
